#dP2023 11 26  6  0  0.00000000      96 __u+U IGS20 EXT  IAC
## 2290  21600.00000000   900.00000000 60274 0.2500000000000
+  117   C06C07C08C09C10C11C12C13C14C16C19C20C21C22C24C25C26
+        C27C28C29C30C32C33C34C35C36C37C38C39C40C41C42C43C44
+        C45C46E02E03E04E05E07E08E09E10E11E12E13E15E19E21E24
+        E25E26E27E30E31E33E34E36G01G02G03G04G05G06G07G08G09
+        G10G11G12G13G14G15G16G17G18G19G20G21G22G23G24G25G26
+        G27G28G29G30G31G32J02J03J04R01R02R03R04R05R07R08R09
+        R11R12R13R14R15R16R17R18R19R20R21R22R24R25R26  0  0
++         9 10 10 10  9 11  8  8  9  8  8  9  8  8  8  8  9
++         8  8  9  9  9  9  8  7  9 10 11 10  9 10  9  9  8
++         7 10  8  8  7  8  7  8  7 10  8  7  8  8  8  8  7
++         8  8  9  8  7  7  7  7  7  7  8  7  8  8  7  7  7
++         8  8  9  7  8  7  8  8  8  7  8  7  8  8  8  7  8
++         7  7  7  8  7  7  8 11  8  9  7  9  8  8  8  9  8
++         8  9  8  7  9  8  9  8  7  8  8  9  7  8  8  0  0
%c M  cc GPS ccc cccc cccc cccc cccc ccccc ccccc ccccc ccccc
%c cc cc ccc ccc cccc cccc cccc cccc ccccc ccccc ccccc ccccc
%f  0.0000000  0.000000000  0.00000000000  0.000000000000000
%f  0.0000000  0.000000000  0.00000000000  0.000000000000000
%i    0    0    0    0      0      0      0      0         0
%i    0    0    0    0      0      0      0      0         0
/* IAC                                ULTRA-RAPID PREDICTION
/* S/V CLOCKS ARE ALIGNED TO GNSS TIME                      
/* G:C1WC2W R:C1PC2P E:C1XC5X C:C2IC6I J:C1CC2S             
/* PCV:IGS20_2287 OL/AL:FES2004  NONE     YN ORB:CoN CLK:CoN
*  2023 11 26 19 30  0.00000000
PC06 -14885.543774  24297.340287 -31130.352442     41.756919
PC07 -11669.256319  40406.080858   -648.847485   -380.815402
PC08   2147.481519  29355.264195  30285.768119    217.120178
PC09  -4121.497181  24441.851458 -33744.944063   -140.227185
PC10  -4504.258731  41045.192980   7336.329976    -31.455374
PC11 -10812.177644 -11909.933434 -22723.245488    276.152196
PC12   9836.299206 -17806.376427 -19059.334256    845.428864
PC13   6933.643789  32522.980932  26257.128169    388.007501
PC14  -7897.832105 -22210.383393  14982.215327    862.533561
PC16 -18293.068329  23228.586898 -29944.688021   -195.525500
PC19  12634.889388  13730.249064 -20728.138092   -962.295771
PC20   2900.259577  26423.637965  -8451.758082     82.008406
PC21   9519.037314 -24222.592616 -10084.490521   -969.812444
PC22  15693.026765  -7600.965121 -21800.533477   -209.713587
PC24  -8954.282121 -20936.852485  16092.859252    635.013256
PC25 -23096.212973 -15633.642623   -475.174565    264.600931
PC26   8773.125355 -13736.014965  22631.420047   -211.797928
PC27 -17697.805185  17359.099719  12807.980827    233.753479
PC28 -26199.074264   9211.093616  -2715.814532    176.574218
PC29  19586.014394   5495.676671  19103.354980    206.633908
PC30    702.654207  16917.266456  22182.583070     -9.139363
PC32  -9406.935198  24207.329147  10212.626759   -537.675016
PC33 -12706.589552 -13786.987020  20669.352688   -943.259185
PC34  -2384.001632 -16391.702398 -22462.329397    311.997629
PC35  25813.815319 -10216.240968   2642.623067    494.074247
PC36  22396.252170  16656.791557   -364.149472   -117.642817
PC37  -9665.951002  13123.714817 -22646.607577   -901.221843
PC38  -5868.537464  25662.604246  33024.304560    120.249279
PC39 -21453.293514  23702.149066 -27590.621737     -5.823446
PC40 -18221.116493  37741.905351  -3124.430677    -45.518642
PC41 -15782.427525   6747.496213  22049.429232   -871.775173
PC42  -1998.035519 -26948.453945   7045.617200   -491.635421
PC43 -18958.482445  -6280.075522 -19502.578890     49.886785
PC44  17104.069014 -18061.838003 -12628.640540    304.812345
PC45  22647.510654   2342.817504  16147.151302    -49.723386
PC46  10045.267238  21030.015463 -15390.974665   -102.845920
PE02  13565.341383  25775.921076   5328.736950     81.717535
PE03   7612.978489  16571.306603 -23323.665102    -76.112163
PE04 -20624.451056   1896.657100  21148.156830   -266.511670
PE05  -9715.186990  25281.790916 -11949.611631   4694.734688
PE07  21635.114842 -18986.293406  -6912.974488    -89.900137
PE08  20296.473493  -1409.477939 -21508.594166   -183.065271
PE09 -21617.764429  18938.056984   7061.069684   -241.784974
PE10 -28298.346941   1121.355887   8592.654405   -581.855998
PE11 -22587.657643   7800.019146  17470.169604   3233.952997
PE12 -29156.607581  -5104.009636   -611.828513   -793.652414
PE13  23102.436991  -7348.875845 -16973.690059    -19.618359
PE15  29083.434072   5390.983731   1146.823351    -71.614349
PE19  -5323.977847 -18282.820239  22659.823163  -1134.982768
PE21  -1058.093805 -26866.382283  12370.981373   -566.025096
PE24 -13072.840048  11910.026934 -23755.839644   -453.321526
PE25    782.073697  26738.729620 -12680.894933     -2.841995
PE26   2957.834367 -15887.548257 -24787.828485    292.432987
PE27  12725.911772 -12397.332307  23674.559664   -209.614694
PE30  18862.951329   9609.145212  20686.280724   -694.026429
PE31 -18839.769516  -9187.963925 -20891.153975    -10.675002
PE33 -17392.745177 -14942.369393 -18702.642583      3.109083
PE34  17989.972876  14751.494404  18311.328263    -80.109210
PE36  -3706.478837  15597.730228  24891.450131   -149.493373
PG01 -15985.196426 -13947.625655 -16544.292856    163.350657
PG02 -10445.887396 -14228.154914 -19405.880330   -523.692919
PG03 -12017.149778 -23291.437346   4500.680005     12.591778
PG04  -7544.705454 -13896.367921  21328.637014    223.628275
PG05   4766.828613  24760.428635   8019.152535   -151.878064
PG06 -19874.542170   7318.012111  16163.455504    495.232445
PG07 -26059.361146  -6032.198671   2454.365706      3.243270
PG08   -564.465891 -19751.101571 -17629.384112   -154.017885
PG09 -16103.466042  -3171.018421  20806.350514      8.802159
PG10  13818.875243  -4922.982889 -21951.142860    -62.949830
PG11  -8836.545245  13181.989230  21312.113501   -476.664031
PG12   9766.847873  24491.380853   3238.286803   -451.204517
PG13 -10492.069564  21122.612879 -12199.332991    599.471059
PG14 -15833.122909   1073.806823 -21294.176359    254.352318
PG15   3435.417825  19843.025017 -17697.562079    101.036913
PG16   2472.300028 -22934.027744  12430.929471   -415.072856
PG17 -20961.370327  10277.265209 -12352.552172    722.818308
PG18  26223.494890   4812.938706     97.853259   -490.197552
PG19 -20662.323441  15666.770337  -5004.791994    404.329402
PG20  -3699.505165  19136.442071  18173.955803    399.637858
PG21  -7498.041893 -14818.718666 -20418.979040    143.217275
PG22 -12612.179679   9265.574308 -21057.200503     76.718405
PG23  17075.861729   8614.131154 -18496.735208    105.630634
PG24  11396.165344  15047.294779 -19237.560668   -380.321205
PG25  16448.199600  16174.686444  13072.087187    479.075130
PG26   7877.423355 -16465.316845  19038.673365    213.830812
PG27  11323.853894 -22583.671766  -7718.126684    -75.289723
PG28  21208.708954  -7298.844959  14202.501332    -55.313536
PG29  15236.272887   4862.527508  21179.531922   -610.102002
PG30 -25372.270180   1749.742801  -7994.830891   -464.023481
PG31  14564.288256 -11124.750430  19162.267095   -226.089756
PG32  20041.349553 -14078.683909  -9821.887649   -590.174690
PJ02 -20159.360183  26090.312225 -21578.156438     -0.302929
PJ03 -29720.226006  25565.059656  20772.134813     -9.653223
PJ04 -28632.043636  28318.972276  18343.252272     73.037093
PR01  12454.723625  -8820.876295 -20444.011332     70.749678
PR02  10171.007148 -22355.664550  -6709.260969    -22.319665
PR03   1630.186236 -23087.463026  10689.305818     89.765009
PR04  -7186.097442 -11102.407547  21831.274917    212.737057
PR05 -12422.235057   6821.324721  21223.157375    122.883770
PR07  -1276.567102  22836.527709 -11319.026703     70.032263
PR08   7404.892034  10953.476752 -21768.137945    -73.415926
PR09  -4397.992161  11290.103771 -22421.823017    155.412237
PR11  18528.675138  17339.392366   2521.155157   -216.153502
PR12  16546.403208   4108.946189  19001.652020     33.852070
PR13   6151.641145  -9417.757405  22876.121689    -41.716565
PR14 -10062.817699 -19466.827034  13078.374312     25.613387
PR15 -18726.869728 -16873.726630  -3901.088316     84.469477
PR16 -16625.811497  -4381.367138 -18850.114935     21.002099
PR17  -1001.546096 -10621.205360 -23155.126205     38.368564
PR18 -17423.318206  -4510.222510 -18074.633140    113.922601
PR19 -24843.759769   2314.684287  -5273.920122   -256.084097
PR20 -17970.267895  10172.684364  15015.937843   -104.180441
PR21   1688.790746  10394.181393  23239.646954    -56.416176
PR22  18070.022916   4919.565905  17345.332921     95.425136
PR24  17033.368093 -11263.201313 -15274.837006    -33.647566
PR25    715.106049  10949.656238  23036.846090     -3.606932
PR26   7212.033855  11476.568217 -21588.488985    -14.974560
EOF
